#dP2022  5 31  0  0  0.00000000      96 __u+U ITR14 FIT  IAC
## 2212 172800.00000000   900.00000000 59730 0.0000000000000
+  127   C01C02C03C04C05C06C07C08C09C10C11C12C13C14C16C19C20
+        C21C22C23C24C25C26C27C28C29C30C32C33C34C35C36C37C38
+        C39C40C41C42C43C44C45C46C60E01E02E03E04E05E07E08E09
+        E10E11E12E13E14E15E18E19E21E24E25E26E27E30E31E33E34
+        E36G01G02G03G04G05G06G07G08G09G10G11G12G13G14G15G16
+        G17G18G19G20G21G22G23G24G25G26G27G28G29G30G31G32J02
+        J03J07R01R02R03R04R05R06R07R08R09R10R11R12R13R14R15
+        R17R18R19R20R21R22R23R24  0  0  0  0  0  0  0  0  0
++        17 16 17 17 20  9  9 11  8  8  9  8 10  9  9  7  7
++         7  7  7  7  7  7  7  7  7  7  7  7  7  7  7  7  8
++         8  8  7  7  7  7  7  7 16  4  4  4  5  4  4  4  5
++         5  5  4  4  5  4  4  4  4  4  4  4  4  4  5  4  4
++         5  4  4  4  4  3  4  4  4  4  4  4  4  3  3  4  4
++         4  3  4  4  4  4  4  4  4  4  3  4  4  3  4  4  8
++         8 17  7  6  6  6  6 15  6  6  6 15  6  6  7  5  6
++         6  9  9  7  6  7 15  6  0  0  0  0  0  0  0  0  0
%c M  cc GPS ccc cccc cccc cccc cccc ccccc ccccc ccccc ccccc
%c cc cc ccc ccc cccc cccc cccc cccc ccccc ccccc ccccc ccccc
%f  0.0000000  0.000000000  0.00000000000  0.000000000000000
%f  0.0000000  0.000000000  0.00000000000  0.000000000000000
%i    0    0    0    0      0      0      0      0         0
%i    0    0    0    0      0      0      0      0         0
/* INFORMATION & ANALYSIS CENTER (IAC)            RAPID DATA
/* S/V CLOCKS ARE ALIGNED TO GNSS TIME                      
/* G:C1WC2W R:C1PC2P E:C1XC5X C:C2IC6I J:C1CC2S             
/* PCV:IGS14_2196 OL/AL:FES2004  NONE     YN ORB:CoN CLK:CoN
*  2022 05 31 15  0  0.00000000
PC01 -34341.569680  24450.059572    -45.926703    255.080376
PC02   4393.020154  41966.713940   1299.822007    -31.332941
PC03 -14788.545761  39516.464577    588.980312   -540.445087
PC04 -39632.926303  14382.307636   -461.420029    101.997588
PC05  21781.346702  36134.669818   1075.456109    248.370340
PC06   -552.602773  35262.320098  23298.409478     95.098095
PC07 -13166.923794  26239.092920 -30316.194693   -238.164483
PC08 -16593.014747  37753.821584   8448.603205    340.355013
PC09   4258.753659  38550.457427  17502.948007   -839.265492
PC10  -4210.705586  26906.052715 -31992.240113    129.233543
PC11  12738.868835  -8625.066526  23339.677149    386.022627
PC12  19331.838021  10229.372198  17351.932043   -607.061298
PC13 -10665.823877  37979.558434  14625.430640    -17.076209
PC14  23459.197659  -9034.504547 -12024.596237    488.861641
PC16  -3079.741514  33134.105293  26228.401944    136.221119
PC19 -15459.486169  13495.102713  18952.569206    864.034836
PC20 -27166.429946   4212.603552   4925.888483   -938.260361
PC21  23225.469287   8297.058703  13049.522112   -395.332796
PC22   5640.103601  15373.300821  22596.922536   -966.693546
PC23   1589.763809 -24036.138628  14094.537087   -931.454037
PC24  19459.000877  -8382.511899 -18177.647266   -972.072656
PC25  14019.248866 -24054.624330  -2045.805096   -728.650089
PC26  13355.164090   9452.668458 -22613.679663    730.061325
PC27 -18854.592056 -17873.744936 -10192.094839    731.762653
PC28  -9456.559611 -25313.506941   6972.776027     73.159626
PC29  -5386.700190  18016.821766 -20630.602426    562.106076
PC30 -17846.376819   -119.877499 -21458.505984    499.272534
PC32 -23305.034746  -8111.259033 -13029.587557   -965.392950
PC33  15431.439353 -13563.253905 -18865.763915   -967.124881
PC34  17460.470898   -904.515775  21738.940194   -391.235153
PC35   9544.664764  25012.507235  -7951.201164    299.320965
PC36 -14868.106603  23476.458406   2582.448588   -965.815602
PC37 -12377.934946 -10971.466884  22494.364059   -908.398533
PC38 -20202.107689  36923.912263    527.879402    236.038777
PC39  -6324.944294  29175.220680  29880.713863     34.985260
PC40 -19490.350736  19642.502584 -31893.664330    273.606339
PC41  -5188.669540 -15433.306054 -22609.710849   -967.657168
PC42  27395.346691  -3535.371649  -3824.412712   -965.775859
PC43   6110.334307 -17506.530577  20834.363608   -920.888089
PC44  19475.244674  17371.059910   9915.344389    677.379835
PC45  -1407.030923  23871.690746 -14365.089122    771.371002
PC46 -19469.377160   9952.296368  17324.989026   -354.093533
PC60   7266.308067  41531.542665   -608.306658     -1.028961
PE01  -9626.381043 -13593.830680  24469.072752   -487.183553
PE02   9810.031508  13475.702984 -24463.546448    302.695731
PE03  20021.595720  19078.154082  10535.647887   -563.982515
PE04 -27329.989388  -8397.275809   7684.654556  -1039.918037
PE05    793.966829  18741.447682  22905.465495   -176.490556
PE07  18588.189016  -7512.284228 -21760.316402   -673.939196
PE08  27313.913915   8173.154796  -7922.136681   -538.567380
PE09 -18457.324278   7520.454468  21899.375556   -537.337600
PE10 -15570.393701   5865.564463 -24493.831096   -516.621895
PE11 -12693.370859  17151.065999 -20538.719612   3500.650213
PE12 -15984.760428  -5737.468469 -24247.995881   4586.305329
PE13  12857.068819 -16471.367552  20958.510146    429.019524
PE14 -20763.811760   8383.166450 -23354.235260  -1821.473857
PE15  15906.199735   5912.480091  24253.317861    742.278817
PE18   9816.574942 -11735.938937  18411.962118  -1384.225688
PE19 -18127.911158 -19686.667503 -12636.992644  -5508.200510
PE21   9478.000542 -20874.770494  18722.508530   -737.426698
PE24 -24911.366790  15950.563401   -773.927468   -645.175400
PE25  -9752.454103  20902.937070 -18544.847817   -575.917292
PE26   1798.653445 -29209.880327   4431.962751  -1208.619137
PE27  24393.113604 -16666.981750   1891.764695   -311.420675
PE30  24464.000012  -1750.871616 -16589.062871   -554.966856
PE31 -24819.390453   2679.625009  15912.785571   -497.517866
PE33  -9563.566938 -24682.655098 -13237.813205   -456.098006
PE34   9697.333952  24549.037792  13382.801536   -519.824366
PE36  -2287.039785  29022.694051  -5388.777452   -381.490930
PG01  13036.087197 -14399.079713  17646.426250    351.101561
PG02 -13906.472736  -8842.574249 -20145.327285   -653.033105
PG03  22935.107174 -12995.931761  -2782.670540   -263.405031
PG04  16415.067650  -5392.317535 -20183.965355   -161.876947
PG05 -23756.554160   3257.943266 -11752.037339    -83.842156
PG06  -6364.926138 -22475.727568 -12504.643673    324.922978
PG07   5457.378336 -25225.401137  -4614.243313    322.171334
PG08  21916.320165   1848.099272  15099.095708    -70.242843
PG09   6520.351788 -14070.777704 -21623.902867   -332.348623
PG10   1482.628822  15550.468546  21586.088559   -436.261194
PG11 -13152.265025 -10189.734152 -20710.363269    -18.925095
PG12 -24850.302449   9145.080651    786.027875   -223.952086
PG13 -22098.470992 -11782.251768   8955.063393    321.490480
PG14    452.552166 -16360.590559  20899.448907   -110.364684
PG15 -21839.263589   1236.265380  14862.282461    -56.909472
PG16  21885.274491   3112.683452 -15324.562933   -505.416678
PG17  -9427.914312 -20145.599232  14906.517959    619.374486
PG18  -6339.356588  25123.867801  -5572.226577    155.180425
PG19 -15972.701991 -20051.028764   7104.883942    164.566133
PG20 -17597.999370  -4818.012909 -19218.563248    513.561989
PG21  15375.673626  -3318.775539  21975.660757    161.258070
PG22  17555.558982  19387.624405   5556.212300    268.124972
PG23 -10156.585655  17994.654081  16618.924184    -25.325476
PG24 -14314.916290  10459.118817  19354.906286    230.580016
PG25 -16558.347165  17164.568742 -11685.125632    331.625667
PG26  13715.395553   9792.020116 -20677.142240    209.329025
PG27  23278.248841  12425.269116   4310.228396    210.594523
PG28  -8664.917428 -12936.525188  22007.266266    347.559325
PG29  -7280.781775  13061.125431 -21999.656753   -519.348401
PG30   -871.851888 -26023.868373   4586.626047   -529.872614
PG31   8232.449612  20476.492076 -14563.447579   -179.891102
PG32  12820.380536  19601.651811  12848.289204   -139.971766
PJ02 -35624.067782  21869.119415  -1248.858540     -0.370736
PJ03 -18994.753199  25317.570486 -23272.029650     -2.528716
PJ07 -25414.052795  33652.269336     12.707342     -0.054539
PR01  25000.168600   4459.727516   2315.510938      9.308634
PR02  19256.946482  -4501.771957 -16099.689055    519.974073
PR03   2247.406248 -10689.932064 -23002.157096     57.605082
PR04 -15715.233125 -10617.191059 -17021.681412    144.171701
PR05 -24969.669689  -4893.436560  -1627.742844     93.822340
PR06 -18260.291897   5767.153325  16836.641364    -51.375369
PR07  -1336.360125  10868.182875  23081.543328     35.812268
PR08  15833.632185  10668.435208  16989.396746    -65.432542
PR09 -17540.487452  17396.062921   6530.476368     58.004145
PR10 -10731.479576  21076.413435  -9469.211159    -82.897177
PR11   2793.289855  13094.588539 -21703.476871     37.540796
PR12  15059.340680  -3325.342567 -20296.340775     18.695913
PR13  17717.964105 -16597.206051  -7838.043084    -23.047810
PR14   9856.233356 -20878.861927  10835.545473     25.443337
PR15  -3443.444555 -12537.390293  21965.164147     95.740111
PR17  -2342.897341 -22158.312827  12452.186392    530.857517
PR18 -10414.519009 -22896.485752  -4061.263908    118.718089
PR19 -12784.723837 -13097.792566 -17774.716709   -191.019523
PR20  -7996.612430   8009.757890 -22863.866061    -71.677053
PR21   3101.620760  22714.921655 -11166.625560   -305.681950
PR22  10567.290742  22752.825744   4875.728804   -186.633045
PR23  12606.539939   7350.788281  20907.786086    -42.629723
PR24   7922.724879  -9026.431006  22514.387811     96.411101
EOF
